NORAD_CAT_ID,OBJECT_NAME,OBJECT_TYPE,EPOCH,MEAN_MOTION,ECCENTRICITY,INCLINATION,RA_OF_ASC_NODE,ARG_OF_PERICENTER,MEAN_ANOMALY,BSTAR,MEAN_MOTION_DOT,MEAN_MOTION_DDOT,TLE_LINE0,TLE_LINE1,TLE_LINE2,SEMIMAJOR_AXIS,PERIOD,APOGEE,PERIGEE,DECAYED
53436.0,STARLINK-4527,PAYLOAD,2022-11-07 22:00:00,15.08870514,0.0001575999999999,53.2175,170.5942,67.689,14.8853,-0.0035959,-0.00057111,0.0,0 STARLINK-4527,1 53436U 22097BA  22311.91667824 -.00057111  00000-0 -35959-2 0  9993,2 53436  53.2175 170.5942 0001576  67.6890  14.8853 15.08870514 14462,6917.7869999999975,95.436,540.742,538.562,0.0
53436.0,STARLINK-4527,PAYLOAD,2022-11-08 06:00:00,15.08872424,0.0001067,53.216,169.1009,67.0954,26.9773,-0.00077888,-0.00012673,0.0,0 STARLINK-4527,1 53436U 22097BA  22312.25001157 -.00012673  00000-0 -77888-3 0  9994,2 53436  53.2160 169.1009 0001067  67.0954  26.9773 15.08872424 14517,6917.781,95.436,540.384,538.908,0.0
53436.0,STARLINK-4527,PAYLOAD,2022-11-08 14:00:01,15.08867473,0.0001093,53.2162,167.6034,78.8374,26.8573,0.0011072,0.0001739,0.0,0 STARLINK-4527,1 53436U 22097BA  22312.58334491  .00017390  00000-0  11072-2 0  9991,2 53436  53.2162 167.6034 0001093  78.8374  26.8573 15.08867473  1303,6917.795999999999,95.436,540.418,538.905,0.0
53436.0,STARLINK-4527,PAYLOAD,2022-11-08 22:00:00,15.08860408,0.0001305,53.2159,166.1087,70.3132,47.0241,-0.0033313,-0.00052945,0.0,0 STARLINK-4527,1 53436U 22097BA  22312.91667824 -.00052945  00000-0 -33313-2 0  9996,2 53436  53.2159 166.1087 0001305  70.3132  47.0241 15.08860408  1304,6917.818,95.436,540.586,538.78,0.0
53436.0,STARLINK-4527,PAYLOAD,2022-11-09 14:00:01,15.088327,0.0001303,53.2157,163.1143,82.5811,57.9334,0.0015466,0.00024407,0.0,0 STARLINK-4527,1 53436U 22097BA  22313.58334491  .00024407  00000-0  15466-2 0  9990,2 53436  53.2157 163.1143 0001303  82.5811  57.9334 15.08832700 14715,6917.903,95.438,540.669,538.866,0.0
53436.0,STARLINK-4527,PAYLOAD,2022-11-10 00:00:00,15.08822472,0.0001377,53.2153,161.2457,70.2774,174.7387,0.0029278,0.00046594,0.0,0 STARLINK-4527,1 53436U 22097BA  22314.00001157  .00046594  00000-0  29278-2 0  9995,2 53436  53.2153 161.2457 0001377  70.2774 174.7387 15.08822472  1303,6917.934,95.439,540.752,538.846,0.0
53436.0,STARLINK-4527,PAYLOAD,2022-11-10 06:00:00,15.08873172,0.0001359,53.215,160.1222,75.8579,87.8443,-0.004292,-0.00068012,0.0,0 STARLINK-4527,1 53436U 22097BA  22314.25001157 -.00068012  00000-0 -42920-2 0  9992,2 53436  53.2150 160.1222 0001359  75.8579  87.8443 15.08873172 14812,6917.779,95.435,540.5840000000002,538.7040000000002,0.0
53436.0,STARLINK-4527,PAYLOAD,2022-11-10 14:00:01,15.08824967,0.0001455,53.2151,158.6252,84.0648,91.2428,0.0008277999999999,0.00012906,0.0,0 STARLINK-4527,1 53436U 22097BA  22314.58334491  .00012906  00000-0  82780-3 0  9996,2 53436  53.2151 158.6252 0001455  84.0648  91.2428 15.08824967  1304,6917.926,95.439,540.798,538.785,0.0
53436.0,STARLINK-4527,PAYLOAD,2022-11-10 16:00:00,15.08839217,0.0001448,53.2151,158.2516,82.2087,185.9902,-0.00096692,-0.00015643,0.0,0 STARLINK-4527,1 53436U 22097BA  22314.66667824 -.00015643  00000-0 -96692-3 0  9994,2 53436  53.2151 158.2516 0001448  82.2087 185.9902 15.08839217 14870,6917.8830000000025,95.438,540.749,538.746,0.0
53436.0,STARLINK-4527,PAYLOAD,2022-11-10 22:00:00,15.08818326,0.0001508,53.2149,157.1305,73.7604,113.1328,0.0010782,0.00016903,0.0,0 STARLINK-4527,1 53436U 22097BA  22314.91667824  .00016903  00000-0  10782-2 0  9995,2 53436  53.2149 157.1305 0001508  73.7604 113.1328 15.08818326  1305,6917.946999999999,95.439,540.855,538.768,0.0
53436.0,STARLINK-4527,PAYLOAD,2022-11-11 14:00:01,15.08839797,0.0001496,53.2149,154.136,83.348,126.7054,0.00043713,6.676e-05,0.0,0 STARLINK-4527,1 53436U 22097BA  22315.58334491  .00006676  00000-0  43713-3 0  9997,2 53436  53.2149 154.1360 0001496  83.3480 126.7054 15.08839797 15012,6917.880999999999,95.438,540.781,538.711,0.0
53436.0,STARLINK-4527,PAYLOAD,2022-11-11 22:00:00,15.08828848,0.0001551999999999,53.2149,152.6413,72.8117,148.846,0.0017035999999999,0.00026921,0.0,0 STARLINK-4527,1 53436U 22097BA  22315.91667824  .00026921  00000-0  17036-2 0  9996,2 53436  53.2149 152.6413 0001552  72.8117 148.8460 15.08828848  1305,6917.9140000000025,95.438,540.8530000000002,538.706,0.0
53436.0,STARLINK-4527,PAYLOAD,2022-11-12 14:00:01,15.08859671,0.0001525,53.2151,149.6467,81.7088,163.1467,0.00026155,3.879e-05,0.0,0 STARLINK-4527,1 53436U 22097BA  22316.58334491  .00003879  00000-0  26155-3 0  9991,2 53436  53.2151 149.6467 0001525  81.7088 163.1467 15.08859671  1304,6917.82,95.436,540.74,538.63,0.0
53436.0,STARLINK-4527,PAYLOAD,2022-11-12 22:00:00,15.08852607,0.0001555,53.2153,148.1519,71.137,185.3423,-0.00075211,-0.00012242,0.0,0 STARLINK-4527,1 53436U 22097BA  22316.91667824 -.00012242  00000-0 -75211-3 0  9990,2 53436  53.2153 148.1519 0001555  71.1370 185.3423 15.08852607 15213,6917.842,95.437,540.783,538.631,0.0
53436.0,STARLINK-4527,PAYLOAD,2022-11-13 00:00:00,15.08843311,0.0001501999999999,53.2152,147.7779,69.6069,279.778,0.00013274,1.825e-05,0.0,0 STARLINK-4527,1 53436U 22097BA  22317.00001157  .00001825  00000-0  13274-3 0  9996,2 53436  53.2152 147.7779 0001502  69.6069 279.7780 15.08843311  1305,6917.87,95.437,540.774,538.696,0.0
53436.0,STARLINK-4527,PAYLOAD,2022-11-13 14:00:01,15.08847697,0.0001535,53.2158,145.1574,79.6883,199.9866,-0.0025101,-0.00040023,0.0,0 STARLINK-4527,1 53436U 22097BA  22317.58334491 -.00040023  00000-0 -25101-2 0  9995,2 53436  53.2158 145.1574 0001535  79.6883 199.9866 15.08847697  1306,6917.857,95.437,540.784,538.66,0.0
53436.0,STARLINK-4527,PAYLOAD,2022-11-13 22:00:00,15.08798979,0.0001664,53.216,143.6628,70.6517,220.6153,0.0023435,0.00037164,0.0,0 STARLINK-4527,1 53436U 22097BA  22317.91667824  .00037164  00000-0  23435-2 0  9999,2 53436  53.2160 143.6628 0001664  70.6517 220.6153 15.08798979  1309,6918.005999999999,95.44,541.0219999999998,538.72,0.0
53436.0,STARLINK-4527,PAYLOAD,2022-11-14 14:00:01,15.08838447,0.0001591,53.2165,140.668,79.6619,234.7378,-0.00047528,-7.844e-05,0.0,0 STARLINK-4527,1 53436U 22097BA  22318.58334491 -.00007844  00000-0 -47528-3 0  9998,2 53436  53.2165 140.6680 0001591  79.6619 234.7378 15.08838447  1300,6917.885,95.438,540.851,538.65,0.0
53436.0,STARLINK-4527,PAYLOAD,2022-11-14 22:00:00,15.08777834,0.0001681,53.2169,139.1726,72.5129,253.4883,0.0087982,0.00142336,0.0,0 STARLINK-4527,1 53436U 22097BA  22318.91667824  .00142336  00000-0  87982-2 0  9995,2 53436  53.2169 139.1726 0001681  72.5129 253.4883 15.08777834  1307,6918.07,95.441,541.0980000000002,538.7719999999998,0.0
53436.0,STARLINK-4527,PAYLOAD,2022-11-15 14:00:01,15.08852334,0.0001571999999999,53.217,136.1792,79.7328,269.4205,-0.00092029,-0.0001491,0.0,0 STARLINK-4527,1 53436U 22097BA  22319.58334491 -.00014910  00000-0 -92029-3 0  9997,2 53436  53.2170 136.1792 0001572  79.7328 269.4205 15.08852334  1302,6917.843000000003,95.437,540.795,538.62,0.0
53436.0,STARLINK-4527,PAYLOAD,2022-11-15 22:00:00,15.08794305,0.000162,53.2172,134.6836,72.7668,288.0004,0.0076162999999999,0.00122893,0.0,0 STARLINK-4527,1 53436U 22097BA  22319.91667824  .00122893  00000-0  76163-2 0  9991,2 53436  53.2172 134.6836 0001620  72.7668 288.0004 15.08794305 15672,6918.02,95.44,541.006,538.764,0.0
53436.0,STARLINK-4527,PAYLOAD,2022-11-16 06:00:00,15.08912294,0.0001425,53.2175,133.1842,79.3027,293.0517,-0.0071304,-0.00112226,0.0,0 STARLINK-4527,1 53436U 22097BA  22320.25001157 -.00112226  00000-0 -71304-2 0  9994,2 53436  53.2175 133.1842 0001425  79.3027 293.0517 15.08912294 15721,6917.659000000002,95.433,540.51,538.539,0.0
53436.0,STARLINK-4527,PAYLOAD,2022-11-16 14:00:01,15.08837754,0.0001436,53.2177,131.6869,81.8822,302.1684,-9.369e-05,-1.779e-05,0.0,0 STARLINK-4527,1 53436U 22097BA  22320.58335648 -.00001779  00000-0 -93690-4 0  9999,2 53436  53.2177 131.6869 0001436  81.8822 302.1684 15.08837754  1301,6917.887,95.438,540.746,538.759,0.0
53436.0,STARLINK-4527,PAYLOAD,2022-11-16 22:00:08,15.0883504,0.0001440999999999,53.2175,130.1915,77.7093,318.3112,0.00022215,3.249e-05,0.0,0 STARLINK-4527,1 53436U 22097BA  22320.91675926  .00003249  00000-0  22215-3 0  9998,2 53436  53.2175 130.1915 0001441  77.7093 318.3112 15.08835040  1306,6917.896,95.438,540.757,538.764,0.0
53436.0,STARLINK-4527,PAYLOAD,2022-11-17 14:00:01,15.08863321,0.0001452,53.2163,127.202,80.6201,338.1581,-0.0031812,-0.00050593,0.0,0 STARLINK-4527,1 53436U 22097BA  22321.58334491 -.00050593  00000-0 -31812-2 0  9999,2 53436  53.2163 127.2020 0001452  80.6201 338.1581 15.08863321  1306,6917.809,95.436,540.679,538.67,0.0
53436.0,STARLINK-4527,PAYLOAD,2022-11-17 22:00:00,15.08829946,0.0001486999999999,53.2168,125.7048,73.4662,356.92,-0.0017954,-0.0002874,0.0,0 STARLINK-4527,1 53436U 22097BA  22321.91667824 -.00028740  00000-0 -17954-2 0  9995,2 53436  53.2168 125.7048 0001487  73.4662 356.9200 15.08829946  1304,6917.911,95.438,540.805,538.747,0.0
53436.0,STARLINK-4527,PAYLOAD,2022-11-18 14:00:01,15.08857388,0.0001435,53.2157,122.7129,79.6366,13.9141,-0.0018328,-0.00029352,0.0,0 STARLINK-4527,1 53436U 22097BA  22322.58334491 -.00029352  00000-0 -18328-2 0  9996,2 53436  53.2157 122.7129 0001435  79.6366  13.9141 15.08857388 16076,6917.8269999999975,95.436,540.685,538.7,0.0
53436.0,STARLINK-4527,PAYLOAD,2022-11-18 22:00:00,15.088289199999998,0.0001418,53.2154,121.2176,69.7357,35.4227,0.0018018,0.00028495,0.0,0 STARLINK-4527,1 53436U 22097BA  22322.91667824  .00028495  00000-0  18018-2 0  9993,2 53436  53.2154 121.2176 0001418  69.7357  35.4227 15.08828920  1304,6917.9140000000025,95.438,540.76,538.798,0.0
53436.0,STARLINK-4527,PAYLOAD,2022-11-19 06:00:00,15.08819704,0.000127,53.2154,119.7194,78.3314,38.4332,0.00064398,9.97e-05,0.0,0 STARLINK-4527,1 53436U 22097BA  22323.25001157  .00009970  00000-0  64398-3 0  9992,2 53436  53.2154 119.7194 0001270  78.3314  38.4332 15.08819704 16172,6917.941999999999,95.439,540.686,538.929,0.0
